ORBCOMM FM37 [-]        
1 33064U 08031E   24072.84898483  .00001961  00000+0  31116-3 0  9996
2 33064  48.4419  10.4626 0005849 204.2903 185.5396 14.76033897845814
ORBCOMM FM40 [-]        
1 33065U 08031F   24072.91239150  .00002465  00000+0  37259-3 0  9999
2 33065  48.4443   0.0863 0007181 211.6262 263.6628 14.77283584845852
VESSELSAT 1 [-]         
1 37840U 11058C   24072.45697109  .00000403  00000+0  75431-4 0  9993
2 37840  19.9628   7.3139 0013826 148.1383 211.9859 14.11123946641008
ORBCOMM FM109 [+]       
1 40086U 14040A   24072.58033664  .00001187  00000+0  30259-3 0  9995
2 40086  47.0050  33.4482 0002300 338.1051  21.9736 14.56368095513730
ORBCOMM FM107 [+]       
1 40087U 14040B   24072.61478553  .00001179  00000+0  30067-3 0  9998
2 40087  47.0067  34.2451 0002109 308.7218  51.3478 14.56370202513811
ORBCOMM FM106 [-]       
1 40088U 14040C   24072.88744221  .00001540  00000+0  30624-3 0  9997
2 40088  47.0593 250.4138 0017308  87.6258 272.6613 14.66713583515695
ORBCOMM FM111 [-]       
1 40089U 14040D   24072.62062782  .00002722  00000+0  36879-3 0  9996
2 40089  47.0034 159.6117 0032565 152.0905 208.1745 14.81268498521684
ORBCOMM FM104 [-]       
1 40090U 14040E   24072.66399791  .00000823  00000+0  22780-3 0  9991
2 40090  47.0059  62.2803 0017896 259.1094 100.7777 14.54930935513373
