<?xml version="1.0" encoding="UTF-8"?>
<ndm xmlns:xsi="http://www.w3.org/2001/XMLSchema-instance" xsi:noNamespaceSchemaLocation="https://sanaregistry.org/r/ndmxml_unqualified/ndmxml-2.0.0-master-2.0.xsd">
<omm id="CCSDS_OMM_VERS" version="2.0">
<header><CREATION_DATE/><ORIGINATOR/></header><body><segment><metadata><OBJECT_NAME>ORBCOMM FM37 [-]</OBJECT_NAME><OBJECT_ID>2008-031E</OBJECT_ID><CENTER_NAME>EARTH</CENTER_NAME><REF_FRAME>TEME</REF_FRAME><TIME_SYSTEM>UTC</TIME_SYSTEM><MEAN_ELEMENT_THEORY>SGP4</MEAN_ELEMENT_THEORY></metadata><data><meanElements><EPOCH>2024-03-12T20:22:32.289312</EPOCH><MEAN_MOTION>14.76033897</MEAN_MOTION><ECCENTRICITY>.0005849</ECCENTRICITY><INCLINATION>48.4419</INCLINATION><RA_OF_ASC_NODE>10.4626</RA_OF_ASC_NODE><ARG_OF_PERICENTER>204.2903</ARG_OF_PERICENTER><MEAN_ANOMALY>185.5396</MEAN_ANOMALY></meanElements><tleParameters><EPHEMERIS_TYPE>0</EPHEMERIS_TYPE><CLASSIFICATION_TYPE>U</CLASSIFICATION_TYPE><NORAD_CAT_ID>33064</NORAD_CAT_ID><ELEMENT_SET_NO>999</ELEMENT_SET_NO><REV_AT_EPOCH>84581</REV_AT_EPOCH><BSTAR>.31116E-3</BSTAR><MEAN_MOTION_DOT>.1961E-4</MEAN_MOTION_DOT><MEAN_MOTION_DDOT>0</MEAN_MOTION_DDOT></tleParameters></data></segment></body></omm>
<omm id="CCSDS_OMM_VERS" version="2.0">
<header><CREATION_DATE/><ORIGINATOR/></header><body><segment><metadata><OBJECT_NAME>ORBCOMM FM40 [-]</OBJECT_NAME><OBJECT_ID>2008-031F</OBJECT_ID><CENTER_NAME>EARTH</CENTER_NAME><REF_FRAME>TEME</REF_FRAME><TIME_SYSTEM>UTC</TIME_SYSTEM><MEAN_ELEMENT_THEORY>SGP4</MEAN_ELEMENT_THEORY></metadata><data><meanElements><EPOCH>2024-03-12T21:53:50.625600</EPOCH><MEAN_MOTION>14.77283584</MEAN_MOTION><ECCENTRICITY>.0007181</ECCENTRICITY><INCLINATION>48.4443</INCLINATION><RA_OF_ASC_NODE>0.0863</RA_OF_ASC_NODE><ARG_OF_PERICENTER>211.6262</ARG_OF_PERICENTER><MEAN_ANOMALY>263.6628</MEAN_ANOMALY></meanElements><tleParameters><EPHEMERIS_TYPE>0</EPHEMERIS_TYPE><CLASSIFICATION_TYPE>U</CLASSIFICATION_TYPE><NORAD_CAT_ID>33065</NORAD_CAT_ID><ELEMENT_SET_NO>999</ELEMENT_SET_NO><REV_AT_EPOCH>84585</REV_AT_EPOCH><BSTAR>.37259E-3</BSTAR><MEAN_MOTION_DOT>.2465E-4</MEAN_MOTION_DOT><MEAN_MOTION_DDOT>0</MEAN_MOTION_DDOT></tleParameters></data></segment></body></omm>
<omm id="CCSDS_OMM_VERS" version="2.0">
<header><CREATION_DATE/><ORIGINATOR/></header><body><segment><metadata><OBJECT_NAME>VESSELSAT 1 [-]</OBJECT_NAME><OBJECT_ID>2011-058C</OBJECT_ID><CENTER_NAME>EARTH</CENTER_NAME><REF_FRAME>TEME</REF_FRAME><TIME_SYSTEM>UTC</TIME_SYSTEM><MEAN_ELEMENT_THEORY>SGP4</MEAN_ELEMENT_THEORY></metadata><data><meanElements><EPOCH>2024-03-12T10:58:02.302176</EPOCH><MEAN_MOTION>14.11123946</MEAN_MOTION><ECCENTRICITY>.0013826</ECCENTRICITY><INCLINATION>19.9628</INCLINATION><RA_OF_ASC_NODE>7.3139</RA_OF_ASC_NODE><ARG_OF_PERICENTER>148.1383</ARG_OF_PERICENTER><MEAN_ANOMALY>211.9859</MEAN_ANOMALY></meanElements><tleParameters><EPHEMERIS_TYPE>0</EPHEMERIS_TYPE><CLASSIFICATION_TYPE>U</CLASSIFICATION_TYPE><NORAD_CAT_ID>37840</NORAD_CAT_ID><ELEMENT_SET_NO>999</ELEMENT_SET_NO><REV_AT_EPOCH>64100</REV_AT_EPOCH><BSTAR>.75431E-4</BSTAR><MEAN_MOTION_DOT>.403E-5</MEAN_MOTION_DOT><MEAN_MOTION_DDOT>0</MEAN_MOTION_DDOT></tleParameters></data></segment></body></omm>
<omm id="CCSDS_OMM_VERS" version="2.0">
<header><CREATION_DATE/><ORIGINATOR/></header><body><segment><metadata><OBJECT_NAME>ORBCOMM FM109 [+]</OBJECT_NAME><OBJECT_ID>2014-040A</OBJECT_ID><CENTER_NAME>EARTH</CENTER_NAME><REF_FRAME>TEME</REF_FRAME><TIME_SYSTEM>UTC</TIME_SYSTEM><MEAN_ELEMENT_THEORY>SGP4</MEAN_ELEMENT_THEORY></metadata><data><meanElements><EPOCH>2024-03-12T13:55:41.085696</EPOCH><MEAN_MOTION>14.56368095</MEAN_MOTION><ECCENTRICITY>.00023</ECCENTRICITY><INCLINATION>47.0050</INCLINATION><RA_OF_ASC_NODE>33.4482</RA_OF_ASC_NODE><ARG_OF_PERICENTER>338.1051</ARG_OF_PERICENTER><MEAN_ANOMALY>21.9736</MEAN_ANOMALY></meanElements><tleParameters><EPHEMERIS_TYPE>0</EPHEMERIS_TYPE><CLASSIFICATION_TYPE>U</CLASSIFICATION_TYPE><NORAD_CAT_ID>40086</NORAD_CAT_ID><ELEMENT_SET_NO>999</ELEMENT_SET_NO><REV_AT_EPOCH>51373</REV_AT_EPOCH><BSTAR>.30259E-3</BSTAR><MEAN_MOTION_DOT>.1187E-4</MEAN_MOTION_DOT><MEAN_MOTION_DDOT>0</MEAN_MOTION_DDOT></tleParameters></data></segment></body></omm>
<omm id="CCSDS_OMM_VERS" version="2.0">
<header><CREATION_DATE/><ORIGINATOR/></header><body><segment><metadata><OBJECT_NAME>ORBCOMM FM107 [+]</OBJECT_NAME><OBJECT_ID>2014-040B</OBJECT_ID><CENTER_NAME>EARTH</CENTER_NAME><REF_FRAME>TEME</REF_FRAME><TIME_SYSTEM>UTC</TIME_SYSTEM><MEAN_ELEMENT_THEORY>SGP4</MEAN_ELEMENT_THEORY></metadata><data><meanElements><EPOCH>2024-03-12T14:45:17.469792</EPOCH><MEAN_MOTION>14.56370202</MEAN_MOTION><ECCENTRICITY>.0002109</ECCENTRICITY><INCLINATION>47.0067</INCLINATION><RA_OF_ASC_NODE>34.2451</RA_OF_ASC_NODE><ARG_OF_PERICENTER>308.7218</ARG_OF_PERICENTER><MEAN_ANOMALY>51.3478</MEAN_ANOMALY></meanElements><tleParameters><EPHEMERIS_TYPE>0</EPHEMERIS_TYPE><CLASSIFICATION_TYPE>U</CLASSIFICATION_TYPE><NORAD_CAT_ID>40087</NORAD_CAT_ID><ELEMENT_SET_NO>999</ELEMENT_SET_NO><REV_AT_EPOCH>51381</REV_AT_EPOCH><BSTAR>.30067E-3</BSTAR><MEAN_MOTION_DOT>.1179E-4</MEAN_MOTION_DOT><MEAN_MOTION_DDOT>0</MEAN_MOTION_DDOT></tleParameters></data></segment></body></omm>
<omm id="CCSDS_OMM_VERS" version="2.0">
<header><CREATION_DATE/><ORIGINATOR/></header><body><segment><metadata><OBJECT_NAME>ORBCOMM FM106 [-]</OBJECT_NAME><OBJECT_ID>2014-040C</OBJECT_ID><CENTER_NAME>EARTH</CENTER_NAME><REF_FRAME>TEME</REF_FRAME><TIME_SYSTEM>UTC</TIME_SYSTEM><MEAN_ELEMENT_THEORY>SGP4</MEAN_ELEMENT_THEORY></metadata><data><meanElements><EPOCH>2024-03-12T21:17:55.006944</EPOCH><MEAN_MOTION>14.66713583</MEAN_MOTION><ECCENTRICITY>.0017308</ECCENTRICITY><INCLINATION>47.0593</INCLINATION><RA_OF_ASC_NODE>250.4138</RA_OF_ASC_NODE><ARG_OF_PERICENTER>87.6258</ARG_OF_PERICENTER><MEAN_ANOMALY>272.6613</MEAN_ANOMALY></meanElements><tleParameters><EPHEMERIS_TYPE>0</EPHEMERIS_TYPE><CLASSIFICATION_TYPE>U</CLASSIFICATION_TYPE><NORAD_CAT_ID>40088</NORAD_CAT_ID><ELEMENT_SET_NO>999</ELEMENT_SET_NO><REV_AT_EPOCH>51569</REV_AT_EPOCH><BSTAR>.30624E-3</BSTAR><MEAN_MOTION_DOT>.154E-4</MEAN_MOTION_DOT><MEAN_MOTION_DDOT>0</MEAN_MOTION_DDOT></tleParameters></data></segment></body></omm>
<omm id="CCSDS_OMM_VERS" version="2.0">
<header><CREATION_DATE/><ORIGINATOR/></header><body><segment><metadata><OBJECT_NAME>ORBCOMM FM111 [-]</OBJECT_NAME><OBJECT_ID>2014-040D</OBJECT_ID><CENTER_NAME>EARTH</CENTER_NAME><REF_FRAME>TEME</REF_FRAME><TIME_SYSTEM>UTC</TIME_SYSTEM><MEAN_ELEMENT_THEORY>SGP4</MEAN_ELEMENT_THEORY></metadata><data><meanElements><EPOCH>2024-03-12T14:53:42.243648</EPOCH><MEAN_MOTION>14.81268498</MEAN_MOTION><ECCENTRICITY>.0032565</ECCENTRICITY><INCLINATION>47.0034</INCLINATION><RA_OF_ASC_NODE>159.6117</RA_OF_ASC_NODE><ARG_OF_PERICENTER>152.0905</ARG_OF_PERICENTER><MEAN_ANOMALY>208.1745</MEAN_ANOMALY></meanElements><tleParameters><EPHEMERIS_TYPE>0</EPHEMERIS_TYPE><CLASSIFICATION_TYPE>U</CLASSIFICATION_TYPE><NORAD_CAT_ID>40089</NORAD_CAT_ID><ELEMENT_SET_NO>999</ELEMENT_SET_NO><REV_AT_EPOCH>52168</REV_AT_EPOCH><BSTAR>.36879E-3</BSTAR><MEAN_MOTION_DOT>.2722E-4</MEAN_MOTION_DOT><MEAN_MOTION_DDOT>0</MEAN_MOTION_DDOT></tleParameters></data></segment></body></omm>
<omm id="CCSDS_OMM_VERS" version="2.0">
<header><CREATION_DATE/><ORIGINATOR/></header><body><segment><metadata><OBJECT_NAME>ORBCOMM FM104 [-]</OBJECT_NAME><OBJECT_ID>2014-040E</OBJECT_ID><CENTER_NAME>EARTH</CENTER_NAME><REF_FRAME>TEME</REF_FRAME><TIME_SYSTEM>UTC</TIME_SYSTEM><MEAN_ELEMENT_THEORY>SGP4</MEAN_ELEMENT_THEORY></metadata><data><meanElements><EPOCH>2024-03-12T15:56:09.419424</EPOCH><MEAN_MOTION>14.54930935</MEAN_MOTION><ECCENTRICITY>.0017896</ECCENTRICITY><INCLINATION>47.0059</INCLINATION><RA_OF_ASC_NODE>62.2803</RA_OF_ASC_NODE><ARG_OF_PERICENTER>259.1094</ARG_OF_PERICENTER><MEAN_ANOMALY>100.7777</MEAN_ANOMALY></meanElements><tleParameters><EPHEMERIS_TYPE>0</EPHEMERIS_TYPE><CLASSIFICATION_TYPE>U</CLASSIFICATION_TYPE><NORAD_CAT_ID>40090</NORAD_CAT_ID><ELEMENT_SET_NO>999</ELEMENT_SET_NO><REV_AT_EPOCH>51337</REV_AT_EPOCH><BSTAR>.2278E-3</BSTAR><MEAN_MOTION_DOT>.823E-5</MEAN_MOTION_DOT><MEAN_MOTION_DDOT>0</MEAN_MOTION_DDOT></tleParameters></data></segment></body></omm>

</ndm>
